[{"OBJECT_NAME":"STARLINK-4773","OBJECT_ID":"2022-114W","EPOCH":"2026-03-09T22:01:18.108480","MEAN_MOTION":15.08828883,"ECCENTRICITY":0.00013288,"INCLINATION":53.2171,"RA_OF_ASC_NODE":293.2646,"ARG_OF_PERICENTER":95.1019,"MEAN_ANOMALY":265.0124,"EPHEMERIS_TYPE":0,"CLASSIFICATION_TYPE":"U","NORAD_CAT_ID":53838,"ELEMENT_SET_NO":999,"REV_AT_EPOCH":19300,"BSTAR":0.00011868593,"MEAN_MOTION_DOT":1.601e-5,"MEAN_MOTION_DDOT":0},{"OBJECT_NAME":"CZ-6A DEB","OBJECT_ID":"2022-151AEC","EPOCH":"2026-03-09T16:07:43.414464","MEAN_MOTION":15.01082395,"ECCENTRICITY":0.0040922,"INCLINATION":98.632,"RA_OF_ASC_NODE":144.2747,"ARG_OF_PERICENTER":190.1613,"MEAN_ANOMALY":169.8786,"EPHEMERIS_TYPE":0,"CLASSIFICATION_TYPE":"U","NORAD_CAT_ID":56604,"ELEMENT_SET_NO":999,"REV_AT_EPOCH":16341,"BSTAR":0.005850488,"MEAN_MOTION_DOT":0.00076879,"MEAN_MOTION_DDOT":0}]
